[{"OBJECT_NAME":"STARLINK-35109","OBJECT_ID":"2025-210W","EPOCH":"2026-03-09T22:33:33.185952","MEAN_MOTION":15.3020251,"ECCENTRICITY":8.28e-5,"INCLINATION":53.1571,"RA_OF_ASC_NODE":305.6144,"ARG_OF_PERICENTER":78.8903,"MEAN_ANOMALY":281.2191,"EPHEMERIS_TYPE":0,"CLASSIFICATION_TYPE":"U","NORAD_CAT_ID":65642,"ELEMENT_SET_NO":999,"REV_AT_EPOCH":2777,"BSTAR":0.00074966944,"MEAN_MOTION_DOT":0.00021911,"MEAN_MOTION_DDOT":0},{"OBJECT_NAME":"CZ-6A DEB","OBJECT_ID":"2022-151QB","EPOCH":"2026-03-08T18:03:47.471328","MEAN_MOTION":15.32168285,"ECCENTRICITY":0.00205863,"INCLINATION":98.6246,"RA_OF_ASC_NODE":151.4486,"ARG_OF_PERICENTER":181.9757,"MEAN_ANOMALY":178.1404,"EPHEMERIS_TYPE":0,"CLASSIFICATION_TYPE":"U","NORAD_CAT_ID":54890,"ELEMENT_SET_NO":999,"REV_AT_EPOCH":17659,"BSTAR":0.012866954,"MEAN_MOTION_DOT":0.00424465,"MEAN_MOTION_DDOT":0}]
